TDRS 3                  
1 19548U 88091B   20068.18641354 -.00000303  00000-0  00000-0 0  9998
2 19548  14.2267 358.3244 0039838 322.9881 223.0941  1.00265311102423
FLTSATCOM 8 (USA 46)    
1 20253U 89077A   20068.03063744 -.00000082  00000-0  00000+0 0  9996
2 20253  13.0426   6.3073 0004188 353.3839 249.3510  1.00272920237621
SKYNET 4C               
1 20776U 90079A   20067.98760286  .00000123  00000-0  00000+0 0  9993
2 20776  13.9755   6.7785 0003125 339.9275 208.3674  1.00276612107953
TDRS 5                  
1 21639U 91054B   20068.21093550  .00000081  00000-0  00000-0 0  9990
2 21639  14.2973  11.6056 0028338 357.1446  65.9876  1.00265874104731
TDRS 6                  
1 22314U 93003B   20068.24076406 -.00000298  00000-0  00000-0 0  9992
2 22314  14.0143  14.7253 0006372  42.3295 149.8556  1.00280856 99468
UFO 2 (USA 95)          
1 22787U 93056A   20068.05073000  .00000122  00000-0  00000-0 0  9995
2 22787  11.2522  15.9833 0003305   4.3262 192.9138  1.00278252 95608
USA 99 (MILSTAR-1 1)    
1 22988U 94009A   20068.26038959 -.00000272  00000-0  00000+0 0  9990
2 22988  13.9783  52.2257 0002253 283.9133 245.2231  1.00270898  8660
ASTRA 1D                
1 23331U 94070A   20068.39708831 -.00000275  00000-0  00000+0 0  9991
2 23331   8.9689  42.7988 0003770 310.4852 243.1813  1.00269834 93188
USA 107 (DSP 17)        
1 23435U 94084A   20067.43702288 -.00000165  00000-0  00000+0 0  9993
2 23435  14.5391  12.8327 0002300  31.0860 182.2076  1.00268297  8704
UFO 4 (USA 108)         
1 23467U 95003A   20067.55694954 -.00000028  00000-0  00000-0 0  9992
2 23467   9.9063  21.4442 0004030   5.2992 151.6192  1.00274739 91987
AMSC 1                  
1 23553U 95019A   20067.95968737 -.00000103  00000-0  00000+0 0  9995
2 23553  11.1659  31.9229 0009968 343.3155  29.8944  1.00272325 91182
TDRS 7                  
1 23613U 95035B   20067.97403459 -.00000204  00000-0  00000+0 0  9999
2 23613  14.2151   5.4216 0031694  21.4602 214.7551  1.00271601 90166
USA 113                 
1 23628U 95038A   20068.31924579 -.00000344  00000-0  00000+0 0  9993
2 23628  11.3445  30.7874 0002113 297.0342  57.4252  1.00272803  8628
USA 115 (MILSTAR-1 2)   
1 23712U 95060A   20067.35952189 -.00000203  00000-0  00000+0 0  9997
2 23712  13.1577  20.7870 0003179 350.5109 193.6315  1.00274265  8652
INMARSAT 3-F1           
1 23839U 96020A   20064.47637736  .00000003  00000-0  00000+0 0  9999
2 23839   5.8687  62.8384 0005753 287.0232  48.8161  1.00271779 87609
ASTRA 1F                
1 23842U 96021A   20068.01160462  .00000126  00000-0  00000-0 0  9992
2 23842   0.0577 319.7124 0004917  19.8177 235.0939  1.00269609 29354
MSAT M1                 
1 23846U 96022A   20067.95951291 -.00000093  00000-0  00000-0 0  9991
2 23846   9.1473  42.1606 0006939 327.1431  34.7287  1.00272321 87437
INMARSAT 3-F2           
1 24307U 96053A   20068.08317932 -.00000294  00000-0  00000-0 0  9994
2 24307   4.6880  72.5003 0007797 293.6819 136.5480  0.99993298 86008
AMC-1 (GE-1)            
1 24315U 96054A   20068.09839250  .00000055  00000-0  00000-0 0  9991
2 24315   3.7069  79.4228 0003477 268.9530  82.3827  1.00271606 23332
INMARSAT 3-F3           
1 24674U 96070A   20068.23186346  .00000023  00000-0  00000-0 0  9999
2 24674   5.3996  66.7903 0005853 291.5218  69.6380  1.00269761 84991
AMC-2 (GE-2)            
1 24713U 97002A   20068.39473295 -.00000224  00000-0  00000+0 0  9991
2 24713   6.1811  60.9009 0005807 294.9606 227.9455  1.00271610 35343
INTELSAT 26 (IS-26)     
1 24732U 97007A   20067.99362214 -.00000002  00000-0  00000-0 0  9995
2 24732   8.8981  43.5786 0005984 336.3867 207.5138  1.00271988 49756
USA 130 (DSP 18)        
1 24737U 97008A   20067.16594196  .00000024  00000-0  00000+0 0  9998
2 24737  13.5185  20.6410 0001283 327.3271 244.7227  1.00271077  8618
GALAXY 25 (G-25)        
1 24812U 97026A   20068.20281389  .00000141  00000-0  00000-0 0  9996
2 24812   1.6854  91.2859 0002588 254.8306 286.0935  1.00271454 83398
INTELSAT 5 (IS-5)       
1 24916U 97046A   20068.09708395  .00000080  00000-0  00000-0 0  9993
2 24916   5.5046  66.1169 0002327 303.0197  55.0345  1.00272111 82636
AMC-3 (GE-3)            
1 24936U 97050A   20068.05049389 -.00000273  00000-0  00000+0 0  9991
2 24936   2.5667  86.5011 0003360 270.3277 115.5384  1.00270348 82465
NSS-5                   
1 24957U 97053A   20068.12132698  .00000095  00000-0  00000-0 0  9993
2 24957   5.7654  64.3156 0004173 281.8604 274.2228  1.00271167 82197
USA 134                 
1 25019U 97065A   20068.46111948 -.00000069  00000-0  00000+0 0  9999
2 25019  10.1030  36.7377 0008699 303.2981 240.8550  1.00270563  8629
ASTRA 1G                
1 25071U 97076A   20067.70637882  .00000009  00000-0  00000+0 0  9998
2 25071   4.3965  73.8005 0004115 273.9602 135.6136  1.00271768 81553
INMARSAT 3-F5           
1 25153U 98006B   20067.94436524 -.00000299  00000-0  00000-0 0  9992
2 25153   4.5974  70.7323 0005141 282.1492  99.1793  1.00268851 80915
UFO 8 (USA 138)         
1 25258U 98016A   20068.34808049 -.00000031  00000-0  00000+0 0  9992
2 25258   8.5646  33.1861 0005410 326.5239 103.7354  1.00275140 80590
ASTRA 2A                
1 25462U 98050A   20068.00273021 -.00000318  00000-0  00000-0 0  9995
2 25462   1.3848  94.2714 0003098 245.9307 286.9449  1.00270233 78759
JCSAT-4A                
1 25630U 99006A   20067.86451299 -.00000320  00000-0  00000-0 0  9995
2 25630   4.3799  74.6456 0003421 172.5738   6.0122  1.00270106 27620
SKYNET 4E               
1 25639U 99009B   20067.62175997 -.00000037  00000-0  00000+0 0  9993
2 25639  10.8199  21.6745 0003214 328.9869  37.7350  1.00271185 77032
ASIASAT 3S              
1 25657U 99013A   20067.19581660 -.00000235  00000-0  00000+0 0  9998
2 25657   4.5713  73.0809 0003659 272.8652  37.3873  1.00269589 76823
NIMIQ 1                 
1 25740U 99027A   20068.32258882 -.00000212  00000-0  00000+0 0  9994
2 25740   0.8561  95.0888 0005630 262.8888 198.0865  1.00270274 76221
ABS-7                   
1 25894U 99046A   20068.24451582 -.00000376  00000-0  00000-0 0  9990
2 25894   0.7337  95.8981 0003457 246.0244  28.6260  1.00272343 74143
ABS-6                   
1 25924U 99053A   20068.22802508 -.00000134  00000-0  00000-0 0  9990
2 25924   0.0465 296.6271 0001524  28.6215  82.2432  1.00272797 74881
TELSTAR 12 (ORION 2)    
1 25949U 99059A   20068.17454944 -.00000075  00000-0  00000-0 0  9998
2 25949   3.0782  84.6395 0008231 265.5807 129.7323  1.00271241 74559
AMC-4 (GE-4)            
1 25954U 99060A   20068.16940253  .00000074  00000-0  00000-0 0  9996
2 25954   0.0907 282.0427 0002753  59.2255 111.1270  1.00271602 20603
UFO 10 (USA 146)        
1 25967U 99063A   20068.19190940 -.00000190  00000-0  00000-0 0  9996
2 25967   7.7524  35.9393 0005155 346.5607 190.7554  1.00270583 74362
GALAXY 11 (G-11)        
1 26038U 99071A   20067.89059653 -.00000175  00000-0  00000+0 0  9998
2 26038   0.9707  98.0590 0000746 232.0061  63.4965  1.00270941 74093
USA 148                 
1 26052U 00001A   20068.23221240  .00000033  00000-0  00000-0 0  9994
2 26052   8.2578  47.2003 0002943 324.3261  58.6661  1.00270140  9985
ASIASTAR                
1 26107U 00016A   20068.07361750 -.00000345  00000-0  00000-0 0  9991
2 26107   3.7890  77.7752 0004374 277.7469 302.1747  1.00267715 73160
USA 149 (DSP 20)        
1 26356U 00024A   20067.70494493  .00000093  00000-0  00000-0 0  9995
2 26356  11.4626  27.1589 0002364   5.0460 222.1230  1.00260582  9922
EUTELSAT 80A            
1 26369U 00028A   20068.06227682  .00000110  00000-0  00000-0 0  9997
2 26369   3.1603  81.7540 0003364 259.9939 254.9686  1.00270502 72453
TDRS 8                  
1 26388U 00034A   20067.92688667 -.00000240  00000-0  00000-0 0  9998
2 26388   9.0742  48.2455 0019415 307.4627 233.2575  1.00276607 72193
INTELSAT 9 (IS-9)       
1 26451U 00043A   20068.40441613 -.00000275  00000-0  00000+0 0  9998
2 26451   5.4932  66.3202 0005077 294.5309 275.0159  1.00096425 71861
BRASILSAT B4            
1 26469U 00046A   20068.17795164 -.00000182  00000-0  00000-0 0  9995
2 26469   3.7672  79.1455 0003256 273.6538 145.5906  1.00271620 71989
ASTRA 2B                
1 26494U 00054A   20068.23917021  .00000106  00000-0  00000-0 0  9992
2 26494   4.2955  74.4298 0005286 270.7119 286.9275  1.00269706 23908
NSS-11 (AAP-1)          
1 26554U 00059A   20068.37501762  .00000010  00000-0  00000+0 0  9993
2 26554   0.0497 305.3410 0002639  50.2572 121.9066  1.00271663 71190
USA 153                 
1 26575U 00065A   20068.30813409 -.00000332  00000-0  00000+0 0  9998
2 26575   7.7317  50.4482 0001862 288.1366  73.0682  1.00276882  8633
AMC-6 (GE-6)            
1 26580U 00067A   20068.17978361 -.00000229  00000-0  00000-0 0  9996
2 26580   0.0488 307.3536 0002763  51.0555 149.6363  1.00271476 70983
INTELSAT 12 (IS-12)     
1 26590U 00068A   20068.49627557 -.00000000  00000-0  00000+0 0  9997
2 26590   2.6959  87.0867 0003560 278.2987  44.1480  1.00271454 70820
INTELSAT 1R (IS-1R)     
1 26608U 00072A   20067.86870031 -.00000151  00000-0  00000-0 0  9997
2 26608   2.4925  86.7306 0000144 148.7272  40.3783  1.00271553 18330
ANIK F1                 
1 26624U 00076A   20068.21507653 -.00000087  00000-0  00000-0 0  9994
2 26624   0.0202 149.9084 0000210 178.8850 167.6412  1.00270770 20161
ASTRA 2D                
1 26638U 00081A   20068.06410878  .00000053  00000-0  00000-0 0  9992
2 26638   5.5882  65.2280 0002161 284.8240 256.4790  1.00272896 70405
AMC-8 (GE-8)            
1 26639U 00081B   20068.09682226  .00000091  00000-0  00000-0 0  9996
2 26639   0.4208  96.4921 0002266 216.6278 108.9629  1.00272068 70346
USA 157 (MILSTAR-2 2)   
1 26715U 01009A   20068.29554569 -.00000315  00000-0  00000+0 0  9991
2 26715   9.2366  31.0217 0002476 329.1229  50.4359  1.00273511  8666
